{"type":"Feature","properties":{"MUN":"SEA GIRT BORO","COUNTY":"MONMOUTH","MUN_LABEL":"Sea Girt Borough","MUN_TYPE":"Borough","NAME":"Sea Girt Borough","GNIS_NAME":"Borough of Sea Girt"},"geometry":{"type":"Polygon","coordinates":[[[-74.0377401,40.1406282],[-74.0376461,40.1406187],[-74.0376239,40.1406168],[-74.0374713,40.1406037],[-74.0370793,40.1405696],[-74.036523,40.1405305],[-74.03565,40.1404312],[-74.0346971,40.1402632],[-74.033994,40.1400961],[-74.0331038,40.139901],[-74.032591,40.1397582],[-74.0315858,40.1394685],[-74.0293838,40.1388882],[-74.0289029,40.1387686],[-74.028247,40.1386315],[-74.0279517,40.1385883],[-74.0279193,40.1385841],[-74.0278319,40.1385873],[-74.0277375,40.1385975],[-74.0276433,40.138583],[-74.0275491,40.138572],[-74.0274757,40.1385523],[-74.0273334,40.1385111],[-74.027152,40.1384698],[-74.0269981,40.1384338],[-74.0268713,40.1383963],[-74.0261308,40.1382621],[-74.0252515,40.1381042],[-74.0252424,40.1381024],[-74.0252072,40.1380819],[-74.025198,40.1380764],[-74.0251927,40.1380656],[-74.0251906,40.1380557],[-74.0251926,40.1380476],[-74.0252115,40.1379991],[-74.0253095,40.1378224],[-74.0255796,40.1372536],[-74.0256634,40.1369712],[-74.0256718,40.1368398],[-74.0256352,40.1367454],[-74.0255689,40.136648],[-74.0255209,40.1365907],[-74.0255176,40.1365421],[-74.0255292,40.1364708],[-74.0255669,40.1364052],[-74.0261792,40.1353208],[-74.0263741,40.1348461],[-74.0264946,40.1343852],[-74.0265583,40.1337856],[-74.0265445,40.1336256],[-74.0264931,40.1335283],[-74.0264303,40.1334652],[-74.0264175,40.1334209],[-74.0264289,40.1333866],[-74.0264664,40.1333525],[-74.0265485,40.1333128],[-74.0266159,40.1332646],[-74.0266948,40.1331563],[-74.0268455,40.1328856],[-74.0270423,40.1324179],[-74.0271191,40.1320726],[-74.0272871,40.1317262],[-74.0275347,40.1311602],[-74.0277969,40.1303901],[-74.0278301,40.1301603],[-74.0278272,40.1300431],[-74.0278053,40.1299716],[-74.0277833,40.1299259],[-74.0277838,40.1298602],[-74.0278141,40.1297746],[-74.028075,40.1291844],[-74.028387,40.1284081],[-74.0285615,40.1279738],[-74.0291657,40.1261653],[-74.0292498,40.1259219],[-74.0294865,40.1252368],[-74.0295104,40.125139],[-74.0295106,40.1251176],[-74.0294996,40.125099],[-74.0294828,40.1250947],[-74.0294549,40.1250917],[-74.0294253,40.1250773],[-74.0293957,40.1250486],[-74.0293665,40.1250123],[-74.0293422,40.1249285],[-74.0293457,40.1248758],[-74.0293712,40.1248039],[-74.0294379,40.1246388],[-74.0295273,40.1243658],[-74.0296343,40.1240161],[-74.0296736,40.1239415],[-74.0297102,40.1238489],[-74.0297239,40.1237586],[-74.0297212,40.1236708],[-74.0296987,40.1236255],[-74.0296534,40.1235576],[-74.0296113,40.1234922],[-74.0295922,40.1234219],[-74.0296057,40.1233592],[-74.0297352,40.1230587],[-74.0300659,40.1222548],[-74.0300762,40.122182],[-74.030057,40.1221293],[-74.0300213,40.122094],[-74.0299955,40.1220463],[-74.0299829,40.1219785],[-74.0300063,40.1219008],[-74.0301705,40.1215477],[-74.0302505,40.1213173],[-74.03036,40.1210744],[-74.030463,40.1208239],[-74.0304834,40.1207036],[-74.0304674,40.1206584],[-74.0304285,40.1206206],[-74.0303698,40.1206003],[-74.0303146,40.1205549],[-74.0303066,40.1205273],[-74.0303297,40.1204872],[-74.0303825,40.1204197],[-74.0304488,40.1202795],[-74.0305584,40.120029],[-74.0306932,40.1196633],[-74.0307799,40.1194053],[-74.0308102,40.1192775],[-74.0308107,40.1192047],[-74.0307979,40.1191745],[-74.0307719,40.1191569],[-74.030723,40.1191341],[-74.0307019,40.1191139],[-74.0306955,40.1190913],[-74.0307023,40.1190537],[-74.0307606,40.1188573],[-74.0307826,40.1187831],[-74.0309751,40.1183449],[-74.031019,40.1181343],[-74.0310619,40.1177228],[-74.031089,40.1174623],[-74.0310936,40.1171864],[-74.0317847,40.1176214],[-74.0337982,40.1188888],[-74.034781,40.1195074],[-74.0353735,40.1198615],[-74.035812,40.1200808],[-74.0363832,40.1203531],[-74.0366871,40.1205103],[-74.0370307,40.120688],[-74.0371502,40.1206939],[-74.0372762,40.1207359],[-74.0373686,40.1207633],[-74.0373708,40.120764],[-74.0373885,40.120816],[-74.0373951,40.1208528],[-74.0373972,40.1208645],[-74.0374736,40.1209063],[-74.0377841,40.1210425],[-74.0379549,40.1211298],[-74.0382001,40.1212479],[-74.0382518,40.1212729],[-74.0384514,40.1213998],[-74.0384764,40.1214157],[-74.0384893,40.1214232],[-74.0387242,40.1215599],[-74.0389354,40.1216922],[-74.0391735,40.121842],[-74.0394117,40.1219814],[-74.0395601,40.1220686],[-74.0397171,40.1221973],[-74.0399064,40.1223507],[-74.040243,40.1226324],[-74.0405714,40.1229434],[-74.0409168,40.1232494],[-74.0412309,40.1235207],[-74.0413969,40.1236598],[-74.0416807,40.1239011],[-74.0418961,40.1240854],[-74.0420128,40.1241863],[-74.0421026,40.1242489],[-74.04226,40.1243361],[-74.0424279,40.1244145],[-74.0425406,40.1244253],[-74.0426217,40.1244533],[-74.0427025,40.124516],[-74.0427834,40.1245544],[-74.0428735,40.1245824],[-74.0429319,40.1246276],[-74.0429991,40.1246902],[-74.0430665,40.1247389],[-74.0431835,40.1247948],[-74.0432781,40.1248159],[-74.0433547,40.124837],[-74.0434356,40.1248858],[-74.043512,40.1249345],[-74.0435883,40.1249868],[-74.0436229,40.1250165],[-74.0436287,40.1250215],[-74.0436458,40.1250317],[-74.0437051,40.1250668],[-74.0438358,40.125102],[-74.0439617,40.1251613],[-74.0440562,40.1252101],[-74.0442004,40.1252349],[-74.0443085,40.1252665],[-74.0443253,40.1252766],[-74.0444074,40.1253258],[-74.0444278,40.1253341],[-74.0444839,40.1253572],[-74.0444881,40.1253597],[-74.0445558,40.125399],[-74.0445808,40.1254141],[-74.0423901,40.1299087],[-74.0430143,40.1303017],[-74.0431474,40.1303521],[-74.0432453,40.1303925],[-74.0433455,40.130434],[-74.0436473,40.1305178],[-74.0437979,40.1305597],[-74.0449079,40.1308513],[-74.0463258,40.1312239],[-74.0462703,40.1313298],[-74.0460421,40.1318602],[-74.0460343,40.1318792],[-74.0457816,40.1325009],[-74.0456187,40.1328766],[-74.0455458,40.1330448],[-74.0453799,40.1334274],[-74.0451929,40.1338701],[-74.0450191,40.1342815],[-74.0449781,40.1343714],[-74.0449279,40.1344813],[-74.044773,40.1347946],[-74.0447345,40.1348645],[-74.0446137,40.1350838],[-74.0445783,40.1351447],[-74.0443273,40.135576],[-74.0441825,40.1358185],[-74.0441768,40.1358281],[-74.0439863,40.1361473],[-74.0436317,40.1367497],[-74.0435969,40.1368087],[-74.0432043,40.1374759],[-74.0430256,40.1377857],[-74.0429224,40.1379647],[-74.0426815,40.138357],[-74.0425678,40.1385532],[-74.0425578,40.1385642],[-74.042519,40.1386443],[-74.0424784,40.138724],[-74.0424363,40.1388031],[-74.0423925,40.1388817],[-74.0423471,40.1389598],[-74.0423002,40.1390373],[-74.0422815,40.1390793],[-74.0422646,40.1391217],[-74.0422493,40.1391644],[-74.0422357,40.1392075],[-74.0422238,40.1392509],[-74.0422137,40.1392946],[-74.0422053,40.1393384],[-74.0421987,40.1393824],[-74.0421991,40.1395734],[-74.0422147,40.1401999],[-74.0422195,40.1407097],[-74.0421356,40.1407045],[-74.04203,40.1407008],[-74.0418188,40.1406796],[-74.041568,40.1406618],[-74.0409341,40.1406457],[-74.0393342,40.1406356],[-74.0384754,40.1406484],[-74.0379189,40.1406421],[-74.037813,40.1406356],[-74.0377401,40.1406282]]]}}
